{
  "type": "FeatureCollection",
  "features": [
    {
      "type": "Feature",
      "properties": {
        "norad_id": 35052,
        "name": "IRIDIUM 33 DEB",
        "group": "iridium-33-debris",
        "lat": 65.20430656519072,
        "lon": 32.93371857250941,
        "alt_km": 750.8460590779141,
        "timestamp": "2025-12-02T07:10:09.501270+00:00",
        "meta_object_name": "IRIDIUM 33 DEB",
        "meta_object_id": "1997-051NY",
        "meta_epoch": "2025-12-01T02:29:05.042112",
        "meta_mean_motion": 14.38470014,
        "meta_eccentricity": 0.00134735,
        "meta_inclination": 86.3321,
        "meta_ra_of_asc_node": 25.4643,
        "meta_arg_of_pericenter": 117.5288,
        "meta_mean_anomaly": 242.7281,
        "meta_ephemeris_type": 0,
        "meta_classification_type": "U",
        "meta_norad_cat_id": 35052,
        "meta_element_set_no": 999,
        "meta_rev_at_epoch": 87108,
        "meta_bstar": 0.00021005584,
        "meta_mean_motion_dot": 6.61e-06,
        "meta_mean_motion_ddot": 0,
        "tle_line1": "1 35052U 97051NY  25335.10353058  .00000661  00000+0  21006-3 0  9994",
        "tle_line2": "2 35052  86.3321  25.4643 0013473 117.5288 242.7281 14.38470014871086"
      },
      "geometry": {
        "type": "Point",
        "coordinates": [
          32.93371857250941,
          65.20430656519072
        ]
      }
    },
    {
      "type": "Feature",
      "properties": {
        "norad_id": 35080,
        "name": "IRIDIUM 33 DEB",
        "group": "iridium-33-debris",
        "lat": -64.94831221102103,
        "lon": 49.19859926599786,
        "alt_km": 616.0082699170262,
        "timestamp": "2025-12-02T07:10:09.501290+00:00",
        "meta_object_name": "IRIDIUM 33 DEB",
        "meta_object_id": "1997-051PF",
        "meta_epoch": "2025-11-30T05:17:07.150560",
        "meta_mean_motion": 14.83528996,
        "meta_eccentricity": 0.00649663,
        "meta_inclination": 86.2066,
        "meta_ra_of_asc_node": 58.3492,
        "meta_arg_of_pericenter": 222.6272,
        "meta_mean_anomaly": 136.99,
        "meta_ephemeris_type": 0,
        "meta_classification_type": "U",
        "meta_norad_cat_id": 35080,
        "meta_element_set_no": 999,
        "meta_rev_at_epoch": 69502,
        "meta_bstar": 0.0087445777,
        "meta_mean_motion_dot": 0.0007539,
        "meta_mean_motion_ddot": 0,
        "tle_line1": "1 35080U 97051PF  25334.22022165  .00075390  00000+0  87446-2 0  9999",
        "tle_line2": "2 35080  86.2066  58.3492 0064966 222.6272 136.9900 14.83528996695026"
      },
      "geometry": {
        "type": "Point",
        "coordinates": [
          49.19859926599786,
          -64.94831221102103
        ]
      }
    },
    {
      "type": "Feature",
      "properties": {
        "norad_id": 35297,
        "name": "IRIDIUM 33 DEB",
        "group": "iridium-33-debris",
        "lat": 82.37755658637454,
        "lon": 95.39674649651741,
        "alt_km": 734.281532724016,
        "timestamp": "2025-12-02T07:10:09.501308+00:00",
        "meta_object_name": "IRIDIUM 33 DEB",
        "meta_object_id": "1997-051PM",
        "meta_epoch": "2025-11-28T13:02:32.385696",
        "meta_mean_motion": 14.4505178,
        "meta_eccentricity": 0.00162447,
        "meta_inclination": 86.3859,
        "meta_ra_of_asc_node": 68.817,
        "meta_arg_of_pericenter": 185.2069,
        "meta_mean_anomaly": 174.8967,
        "meta_ephemeris_type": 0,
        "meta_classification_type": "U",
        "meta_norad_cat_id": 35297,
        "meta_element_set_no": 999,
        "meta_rev_at_epoch": 70221,
        "meta_bstar": 0.00072341306,
        "meta_mean_motion_dot": 2.549e-05,
        "meta_mean_motion_ddot": 0,
        "tle_line1": "1 35297U 97051PM  25332.54343039  .00002549  00000+0  72341-3 0  9993",
        "tle_line2": "2 35297  86.3859  68.8170 0016244 185.2069 174.8967 14.45051780702214"
      },
      "geometry": {
        "type": "Point",
        "coordinates": [
          95.39674649651741,
          82.37755658637454
        ]
      }
    },
    {
      "type": "Feature",
      "properties": {
        "norad_id": 35299,
        "name": "IRIDIUM 33 DEB",
        "group": "iridium-33-debris",
        "lat": 1.7777897076192515,
        "lon": -142.38440618938515,
        "alt_km": 727.9429141251321,
        "timestamp": "2025-12-02T07:10:09.501330+00:00",
        "meta_object_name": "IRIDIUM 33 DEB",
        "meta_object_id": "1997-051PP",
        "meta_epoch": "2025-11-30T15:04:09.703776",
        "meta_mean_motion": 14.40761556,
        "meta_eccentricity": 0.00584597,
        "meta_inclination": 86.2896,
        "meta_ra_of_asc_node": 38.4578,
        "meta_arg_of_pericenter": 141.04,
        "meta_mean_anomaly": 15.9157,
        "meta_ephemeris_type": 0,
        "meta_classification_type": "U",
        "meta_norad_cat_id": 35299,
        "meta_element_set_no": 999,
        "meta_rev_at_epoch": 86156,
        "meta_bstar": 0.00082357118,
        "meta_mean_motion_dot": 2.707e-05,
        "meta_mean_motion_ddot": 0,
        "tle_line1": "1 35299U 97051PP  25334.62789009  .00002707  00000+0  82357-3 0  9991",
        "tle_line2": "2 35299  86.2896  38.4578 0058459 141.0400  15.9157 14.40761556861568"
      },
      "geometry": {
        "type": "Point",
        "coordinates": [
          -142.38440618938515,
          1.7777897076192515
        ]
      }
    },
    {
      "type": "Feature",
      "properties": {
        "norad_id": 35480,
        "name": "IRIDIUM 33 DEB",
        "group": "iridium-33-debris",
        "lat": -56.388387444679005,
        "lon": 23.940518862619857,
        "alt_km": 744.5494522882573,
        "timestamp": "2025-12-02T07:10:09.501346+00:00",
        "meta_object_name": "IRIDIUM 33 DEB",
        "meta_object_id": "1997-051QA",
        "meta_epoch": "2025-12-01T03:16:06.301056",
        "meta_mean_motion": 14.49682166,
        "meta_eccentricity": 0.0015406,
        "meta_inclination": 86.3582,
        "meta_ra_of_asc_node": 29.9424,
        "meta_arg_of_pericenter": 139.0611,
        "meta_mean_anomaly": 221.1754,
        "meta_ephemeris_type": 0,
        "meta_classification_type": "U",
        "meta_norad_cat_id": 35480,
        "meta_element_set_no": 999,
        "meta_rev_at_epoch": 86863,
        "meta_bstar": 0.00060122978,
        "meta_mean_motion_dot": 2.335e-05,
        "meta_mean_motion_ddot": 0,
        "tle_line1": "1 35480U 97051QA  25335.13618404  .00002335  00000+0  60123-3 0  9994",
        "tle_line2": "2 35480  86.3582  29.9424 0015406 139.0611 221.1754 14.49682166868631"
      },
      "geometry": {
        "type": "Point",
        "coordinates": [
          23.940518862619857,
          -56.388387444679005
        ]
      }
    },
    {
      "type": "Feature",
      "properties": {
        "norad_id": 35484,
        "name": "IRIDIUM 33 DEB",
        "group": "iridium-33-debris",
        "lat": 86.16508789344726,
        "lon": 106.01365432034012,
        "alt_km": 561.4974577230405,
        "timestamp": "2025-12-02T07:10:09.501363+00:00",
        "meta_object_name": "IRIDIUM 33 DEB",
        "meta_object_id": "1997-051QE",
        "meta_epoch": "2025-12-01T19:32:14.692416",
        "meta_mean_motion": 14.97587734,
        "meta_eccentricity": 0.0021829,
        "meta_inclination": 86.3628,
        "meta_ra_of_asc_node": 357.8533,
        "meta_arg_of_pericenter": 162.6444,
        "meta_mean_anomaly": 197.5538,
        "meta_ephemeris_type": 0,
        "meta_classification_type": "U",
        "meta_norad_cat_id": 35484,
        "meta_element_set_no": 999,
        "meta_rev_at_epoch": 61852,
        "meta_bstar": 0.0025031,
        "meta_mean_motion_dot": 0.00029486,
        "meta_mean_motion_ddot": 0,
        "tle_line1": "1 35484U 97051QE  25335.81405894  .00029486  00000+0  25031-2 0  9994",
        "tle_line2": "2 35484  86.3628 357.8533 0021829 162.6444 197.5538 14.97587734618527"
      },
      "geometry": {
        "type": "Point",
        "coordinates": [
          106.01365432034012,
          86.16508789344726
        ]
      }
    },
    {
      "type": "Feature",
      "properties": {
        "norad_id": 35488,
        "name": "IRIDIUM 33 DEB",
        "group": "iridium-33-debris",
        "lat": 54.273193165549394,
        "lon": -49.179369497784904,
        "alt_km": 595.7228628274679,
        "timestamp": "2025-12-02T07:10:09.501379+00:00",
        "meta_object_name": "IRIDIUM 33 DEB",
        "meta_object_id": "1997-051QJ",
        "meta_epoch": "2025-12-01T08:14:53.482848",
        "meta_mean_motion": 14.82615627,
        "meta_eccentricity": 0.00309682,
        "meta_inclination": 86.3231,
        "meta_ra_of_asc_node": 306.1315,
        "meta_arg_of_pericenter": 78.8041,
        "meta_mean_anomaly": 281.666,
        "meta_ephemeris_type": 0,
        "meta_classification_type": "U",
        "meta_norad_cat_id": 35488,
        "meta_element_set_no": 999,
        "meta_rev_at_epoch": 88097,
        "meta_bstar": 0.0016299271,
        "meta_mean_motion_dot": 0.00013268,
        "meta_mean_motion_ddot": 0,
        "tle_line1": "1 35488U 97051QJ  25335.34367457  .00013268  00000+0  16299-2 0  9995",
        "tle_line2": "2 35488  86.3231 306.1315 0030968  78.8041 281.6660 14.82615627880979"
      },
      "geometry": {
        "type": "Point",
        "coordinates": [
          -49.179369497784904,
          54.273193165549394
        ]
      }
    }
  ]
}